STARLINK-30069          
1 56834U 23079M   26067.48212902 -.00002416  00000+0 -80472-4 0  9995
2 56834  42.9986 110.4464 0000469 272.6695  87.4103 15.26726881152740
STARLINK-31278          
1 59163U 24044M   26068.53082861  .00001143  00000+0  51076-4 0  9994
2 59163  43.0038 107.7183 0001994 287.1664  72.8969 15.27566797113548
